{
  "type": "FeatureCollection",
  "features": [
    {
      "type": "Feature",
      "properties": {
        "norad_id": 19071,
        "name": "OSCAR 32",
        "group": "nnss",
        "lat": 48.65142187229605,
        "lon": -162.92754977927333,
        "alt_km": 1015.5656608524532,
        "timestamp": "2025-12-18T14:52:08.294481+00:00",
        "meta_object_name": "OSCAR 32",
        "meta_object_id": "1988-033B",
        "meta_epoch": "2025-12-18T01:49:41.990016",
        "meta_mean_motion": 13.27954782,
        "meta_eccentricity": 0.01887616,
        "meta_inclination": 90.3212,
        "meta_ra_of_asc_node": 16.6903,
        "meta_arg_of_pericenter": 151.9982,
        "meta_mean_anomaly": 263.8864,
        "meta_ephemeris_type": 0,
        "meta_classification_type": "U",
        "meta_norad_cat_id": 19071,
        "meta_element_set_no": 999,
        "meta_rev_at_epoch": 82336,
        "meta_bstar": 0.00018593495,
        "meta_mean_motion_dot": 1.02e-06,
        "meta_mean_motion_ddot": 0,
        "tle_line1": "1 19071U 88033B   25352.07618044  .00000102  00000+0  18593-3 0  9998",
        "tle_line2": "2 19071  90.3212  16.6903 0188761 151.9982 263.8864 13.27954782823365"
      },
      "geometry": {
        "type": "Point",
        "coordinates": [
          -162.92754977927333,
          48.65142187229605
        ]
      }
    },
    {
      "type": "Feature",
      "properties": {
        "norad_id": 19223,
        "name": "NOVA 2",
        "group": "nnss",
        "lat": -42.99505010239017,
        "lon": -101.72277385388327,
        "alt_km": 1197.0195412764497,
        "timestamp": "2025-12-18T14:52:08.294492+00:00",
        "meta_object_name": "NOVA 2",
        "meta_object_id": "1988-052A",
        "meta_epoch": "2025-12-18T06:46:41.765376",
        "meta_mean_motion": 13.22936356,
        "meta_eccentricity": 0.00301145,
        "meta_inclination": 89.9872,
        "meta_ra_of_asc_node": 78.2657,
        "meta_arg_of_pericenter": 1.6814,
        "meta_mean_anomaly": 56.8639,
        "meta_ephemeris_type": 0,
        "meta_classification_type": "U",
        "meta_norad_cat_id": 19223,
        "meta_element_set_no": 999,
        "meta_rev_at_epoch": 81021,
        "meta_bstar": 0.00013955133,
        "meta_mean_motion_dot": 6.7e-07,
        "meta_mean_motion_ddot": 0,
        "tle_line1": "1 19223U 88052A   25352.28242784  .00000067  00000+0  13955-3 0  9992",
        "tle_line2": "2 19223  89.9872  78.2657 0030114   1.6814  56.8639 13.22936356810215"
      },
      "geometry": {
        "type": "Point",
        "coordinates": [
          -101.72277385388327,
          -42.99505010239017
        ]
      }
    },
    {
      "type": "Feature",
      "properties": {
        "norad_id": 19419,
        "name": "OSCAR 25",
        "group": "nnss",
        "lat": -3.7539215067850957,
        "lon": 20.265749633470932,
        "alt_km": 1145.6843954818814,
        "timestamp": "2025-12-18T14:52:08.294502+00:00",
        "meta_object_name": "OSCAR 25",
        "meta_object_id": "1988-074A",
        "meta_epoch": "2025-12-18T07:47:16.546848",
        "meta_mean_motion": 13.42624399,
        "meta_eccentricity": 0.00947295,
        "meta_inclination": 90.0342,
        "meta_ra_of_asc_node": 20.2625,
        "meta_arg_of_pericenter": 229.662,
        "meta_mean_anomaly": 140.5998,
        "meta_ephemeris_type": 0,
        "meta_classification_type": "U",
        "meta_norad_cat_id": 19419,
        "meta_element_set_no": 999,
        "meta_rev_at_epoch": 82715,
        "meta_bstar": 0.00017443923,
        "meta_mean_motion_dot": 1.1e-06,
        "meta_mean_motion_ddot": 0,
        "tle_line1": "1 19419U 88074A   25352.32449707  .00000110  00000+0  17444-3 0  9998",
        "tle_line2": "2 19419  90.0342  20.2625 0094729 229.6620 140.5998 13.42624399827151"
      },
      "geometry": {
        "type": "Point",
        "coordinates": [
          20.265749633470932,
          -3.7539215067850957
        ]
      }
    },
    {
      "type": "Feature",
      "properties": {
        "norad_id": 19420,
        "name": "OSCAR 31",
        "group": "nnss",
        "lat": -58.799694461868654,
        "lon": -159.44456733030475,
        "alt_km": 1039.8202781639066,
        "timestamp": "2025-12-18T14:52:08.294513+00:00",
        "meta_object_name": "OSCAR 31",
        "meta_object_id": "1988-074B",
        "meta_epoch": "2025-12-18T03:17:17.308896",
        "meta_mean_motion": 13.42585487,
        "meta_eccentricity": 0.00930705,
        "meta_inclination": 90.0357,
        "meta_ra_of_asc_node": 20.6127,
        "meta_arg_of_pericenter": 224.341,
        "meta_mean_anomaly": 203.2452,
        "meta_ephemeris_type": 0,
        "meta_classification_type": "U",
        "meta_norad_cat_id": 19420,
        "meta_element_set_no": 999,
        "meta_rev_at_epoch": 82723,
        "meta_bstar": 0.00014518589,
        "meta_mean_motion_dot": 9.3e-07,
        "meta_mean_motion_ddot": 0,
        "tle_line1": "1 19420U 88074B   25352.13700589  .00000093  00000+0  14519-3 0  9997",
        "tle_line2": "2 19420  90.0357  20.6127 0093070 224.3410 203.2452 13.42585487827232"
      },
      "geometry": {
        "type": "Point",
        "coordinates": [
          -159.44456733030475,
          -58.799694461868654
        ]
      }
    }
  ]
}